*******************************************************************************
Ephemeris / WWW_USER Mon Mar 24 11:29:48 2025 Pasadena, USA      / Horizons    
*******************************************************************************
Target body name: 341764 (2007 VZ326)             {source: JPL#18}
Center body name: Earth (399)                     {source: DE441}
Center-site name: Mauna Kea
*******************************************************************************
Start time      : A.D. 2018-Aug-18 04:58:00.0000 UT      
Stop  time      : A.D. 2018-Aug-18 15:53:00.0000 UT      
Step-size       : 1 minutes
*******************************************************************************
Target pole/equ : undefined
Target radii    : undefined                                                    
Center geodetic : 204.5278, 19.8260847, 4.21024   {E-lon(deg),Lat(deg),Alt(km)}
Center cylindric: 204.5278, 6006.35451, 2151.0229 {E-lon(deg),Dxy(km),Dz(km)}
Center pole/equ : ITRF93                          {East-longitude positive}
Center radii    : 6378.137, 6378.137, 6356.752 km {Equator_a, b, pole_c}       
Target primary  : Sun
Vis. interferer : MOON (R_eq= 1737.400) km        {source: DE441}
Rel. light bend : Sun                             {source: DE441}
Rel. lght bnd GM: 1.3271E+11 km^3/s^2                                          
Small-body perts: Yes                             {source: SB441-N16}
Atmos refraction: NO (AIRLESS)
RA format       : HMS
Time format     : CAL 
Calendar mode   : Mixed Julian/Gregorian
RTS-only print  : NO       
EOP file        : eop.250321.p250617                                           
EOP coverage    : DATA-BASED 1962-JAN-20 TO 2025-MAR-21. PREDICTS-> 2025-JUN-16
Units conversion: 1 au= 149597870.700 km, c= 299792.458 km/s, 1 day= 86400.0 s 
Table cut-offs 1: Elevation (-90.0deg=NO ),Airmass (>38.000=NO), Daylight (YES)
Table cut-offs 2: Solar elongation (  0.0,180.0=NO ),Local Hour Angle( 0.0=NO )
Table cut-offs 3: RA/DEC angular rate (     0.0=NO )                           
*******************************************************************************
Initial IAU76/J2000 heliocentric ecliptic osculating elements (au, days, deg.):
  EPOCH=  2458738.5 ! 2019-Sep-12.00 (TDB)         Residual RMS= .13886        
   EC= .1008373990761695   QR= 2.768240023430626   TP= 2458584.3440952813      
   OM= 228.7009686323446   W=  245.4004729743531   IN= 4.232471987434818       
  Equivalent ICRF heliocentric cartesian coordinates (au, au/d):
   X=-2.388613100272569E+00  Y= 1.431394755664809E+00  Z= 3.975078424350988E-01
  VX=-6.081658482309184E-03 VY=-8.102092841560219E-03 VZ=-3.413222734767960E-03
Asteroid physical parameters (km, seconds, rotational period in hours):        
   GM= n.a.                RAD= n.a.               ROTPER= n.a.                
   H= 16.54                G= .150                 B-V= n.a.                   
                           ALBEDO= n.a.            STYP= n.a.                  
*******************************************************************************
 Date__(UT)__HR:MN     R.A._________(ICRF)_________DEC
******************************************************
$$SOE
 2018-Aug-18 07:01  m  05 20 54.234489 +22 13 07.08251
 2018-Aug-18 07:02  m  05 20 54.292123 +22 13 07.09445
 2018-Aug-18 07:03  m  05 20 54.349755 +22 13 07.10640
 2018-Aug-18 07:04  m  05 20 54.407386 +22 13 07.11836
 2018-Aug-18 07:05  m  05 20 54.465015 +22 13 07.13035
 2018-Aug-18 07:06  m  05 20 54.522643 +22 13 07.14235
 2018-Aug-18 07:07  m  05 20 54.580270 +22 13 07.15436
 2018-Aug-18 07:08  m  05 20 54.637896 +22 13 07.16639
 2018-Aug-18 07:09  m  05 20 54.695520 +22 13 07.17844
 2018-Aug-18 07:10  m  05 20 54.753143 +22 13 07.19051
 2018-Aug-18 07:11  m  05 20 54.810765 +22 13 07.20259
 2018-Aug-18 07:12  m  05 20 54.868385 +22 13 07.21468
 2018-Aug-18 07:13  m  05 20 54.926004 +22 13 07.22680
 2018-Aug-18 07:14  m  05 20 54.983621 +22 13 07.23893
 2018-Aug-18 07:15  m  05 20 55.041237 +22 13 07.25107
 2018-Aug-18 07:16  m  05 20 55.098851 +22 13 07.26323
 2018-Aug-18 07:17  m  05 20 55.156465 +22 13 07.27541
 2018-Aug-18 07:18  m  05 20 55.214076 +22 13 07.28760
 2018-Aug-18 07:19  m  05 20 55.271686 +22 13 07.29981
 2018-Aug-18 07:20  m  05 20 55.329295 +22 13 07.31204
 2018-Aug-18 07:21  m  05 20 55.386902 +22 13 07.32428
 2018-Aug-18 07:22  m  05 20 55.444508 +22 13 07.33654
 2018-Aug-18 07:23  m  05 20 55.502112 +22 13 07.34881
 2018-Aug-18 07:24  m  05 20 55.559714 +22 13 07.36110
 2018-Aug-18 07:25  m  05 20 55.617315 +22 13 07.37341
 2018-Aug-18 07:26  m  05 20 55.674915 +22 13 07.38573
 2018-Aug-18 07:27  m  05 20 55.732513 +22 13 07.39806
 2018-Aug-18 07:28  m  05 20 55.790109 +22 13 07.41041
 2018-Aug-18 07:29  m  05 20 55.847703 +22 13 07.42278
 2018-Aug-18 07:30  m  05 20 55.905296 +22 13 07.43517
 2018-Aug-18 07:31  m  05 20 55.962888 +22 13 07.44756
 2018-Aug-18 07:32  m  05 20 56.020477 +22 13 07.45998
 2018-Aug-18 07:33  m  05 20 56.078065 +22 13 07.47241
 2018-Aug-18 07:34  m  05 20 56.135651 +22 13 07.48486
 2018-Aug-18 07:35  m  05 20 56.193236 +22 13 07.49732
 2018-Aug-18 07:36  m  05 20 56.250819 +22 13 07.50979
 2018-Aug-18 07:37  m  05 20 56.308400 +22 13 07.52228
 2018-Aug-18 07:38  m  05 20 56.365979 +22 13 07.53479
 2018-Aug-18 07:39  m  05 20 56.423556 +22 13 07.54732
 2018-Aug-18 07:40  m  05 20 56.481132 +22 13 07.55985
 2018-Aug-18 07:41  m  05 20 56.538706 +22 13 07.57241
 2018-Aug-18 07:42  m  05 20 56.596278 +22 13 07.58498
 2018-Aug-18 07:43  m  05 20 56.653848 +22 13 07.59756
 2018-Aug-18 07:44  m  05 20 56.711417 +22 13 07.61016
 2018-Aug-18 07:45  m  05 20 56.768983 +22 13 07.62277
 2018-Aug-18 07:46  m  05 20 56.826548 +22 13 07.63540
 2018-Aug-18 07:47  m  05 20 56.884111 +22 13 07.64805
 2018-Aug-18 07:48  m  05 20 56.941672 +22 13 07.66070
 2018-Aug-18 07:49  m  05 20 56.999231 +22 13 07.67338
 2018-Aug-18 07:50  m  05 20 57.056788 +22 13 07.68607
 2018-Aug-18 07:51  m  05 20 57.114343 +22 13 07.69877
 2018-Aug-18 07:52  m  05 20 57.171896 +22 13 07.71149
 2018-Aug-18 07:53  m  05 20 57.229448 +22 13 07.72422
 2018-Aug-18 07:54  m  05 20 57.286997 +22 13 07.73697
 2018-Aug-18 07:55  m  05 20 57.344544 +22 13 07.74974
 2018-Aug-18 07:56  m  05 20 57.402090 +22 13 07.76251
 2018-Aug-18 07:57  m  05 20 57.459633 +22 13 07.77531
 2018-Aug-18 07:58  m  05 20 57.517174 +22 13 07.78811
 2018-Aug-18 07:59  m  05 20 57.574713 +22 13 07.80094
 2018-Aug-18 08:00  m  05 20 57.632250 +22 13 07.81377
 2018-Aug-18 08:01  m  05 20 57.689785 +22 13 07.82662
 2018-Aug-18 08:02  m  05 20 57.747318 +22 13 07.83949
 2018-Aug-18 08:03  m  05 20 57.804849 +22 13 07.85237
 2018-Aug-18 08:04  m  05 20 57.862378 +22 13 07.86526
 2018-Aug-18 08:05  m  05 20 57.919904 +22 13 07.87817
 2018-Aug-18 08:06  m  05 20 57.977429 +22 13 07.89109
 2018-Aug-18 08:07  m  05 20 58.034951 +22 13 07.90403
 2018-Aug-18 08:08  m  05 20 58.092471 +22 13 07.91698
 2018-Aug-18 08:09  m  05 20 58.149989 +22 13 07.92995
 2018-Aug-18 08:10  m  05 20 58.207505 +22 13 07.94293
 2018-Aug-18 08:11  m  05 20 58.265018 +22 13 07.95592
 2018-Aug-18 08:12  m  05 20 58.322530 +22 13 07.96893
 2018-Aug-18 08:13  m  05 20 58.380039 +22 13 07.98195
 2018-Aug-18 08:14  m  05 20 58.437545 +22 13 07.99498
 2018-Aug-18 08:15  m  05 20 58.495050 +22 13 08.00803
 2018-Aug-18 08:16  m  05 20 58.552552 +22 13 08.02110
 2018-Aug-18 08:17  m  05 20 58.610052 +22 13 08.03417
 2018-Aug-18 08:18  m  05 20 58.667550 +22 13 08.04726
 2018-Aug-18 08:19  m  05 20 58.725045 +22 13 08.06037
 2018-Aug-18 08:20  m  05 20 58.782538 +22 13 08.07348
 2018-Aug-18 08:21  m  05 20 58.840029 +22 13 08.08662
 2018-Aug-18 08:22  m  05 20 58.897517 +22 13 08.09976
 2018-Aug-18 08:23  m  05 20 58.955003 +22 13 08.11292
 2018-Aug-18 08:24  m  05 20 59.012487 +22 13 08.12609
 2018-Aug-18 08:25  m  05 20 59.069968 +22 13 08.13928
 2018-Aug-18 08:26  m  05 20 59.127447 +22 13 08.15247
 2018-Aug-18 08:27  m  05 20 59.184923 +22 13 08.16569
 2018-Aug-18 08:28  m  05 20 59.242397 +22 13 08.17891
 2018-Aug-18 08:29  m  05 20 59.299869 +22 13 08.19215
 2018-Aug-18 08:30  m  05 20 59.357338 +22 13 08.20540
 2018-Aug-18 08:31  m  05 20 59.414805 +22 13 08.21867
 2018-Aug-18 08:32  m  05 20 59.472269 +22 13 08.23194
 2018-Aug-18 08:33  m  05 20 59.529730 +22 13 08.24523
 2018-Aug-18 08:34  m  05 20 59.587189 +22 13 08.25854
 2018-Aug-18 08:35  m  05 20 59.644646 +22 13 08.27185
 2018-Aug-18 08:36  m  05 20 59.702100 +22 13 08.28518
 2018-Aug-18 08:37  m  05 20 59.759552 +22 13 08.29852
 2018-Aug-18 08:38  m  05 20 59.817001 +22 13 08.31188
 2018-Aug-18 08:39  m  05 20 59.874447 +22 13 08.32525
 2018-Aug-18 08:40  m  05 20 59.931891 +22 13 08.33863
 2018-Aug-18 08:41  m  05 20 59.989332 +22 13 08.35202
 2018-Aug-18 08:42  m  05 21 00.046771 +22 13 08.36542
 2018-Aug-18 08:43  m  05 21 00.104207 +22 13 08.37884
 2018-Aug-18 08:44  m  05 21 00.161640 +22 13 08.39227
 2018-Aug-18 08:45  m  05 21 00.219071 +22 13 08.40571
 2018-Aug-18 08:46  m  05 21 00.276499 +22 13 08.41917
 2018-Aug-18 08:47  m  05 21 00.333925 +22 13 08.43263
 2018-Aug-18 08:48  m  05 21 00.391348 +22 13 08.44611
 2018-Aug-18 08:49  m  05 21 00.448768 +22 13 08.45960
 2018-Aug-18 08:50  m  05 21 00.506185 +22 13 08.47311
 2018-Aug-18 08:51  m  05 21 00.563600 +22 13 08.48662
 2018-Aug-18 08:52  m  05 21 00.621012 +22 13 08.50015
 2018-Aug-18 08:53  m  05 21 00.678421 +22 13 08.51369
 2018-Aug-18 08:54  m  05 21 00.735828 +22 13 08.52724
 2018-Aug-18 08:55  m  05 21 00.793232 +22 13 08.54080
 2018-Aug-18 08:56  m  05 21 00.850633 +22 13 08.55437
 2018-Aug-18 08:57  m  05 21 00.908031 +22 13 08.56796
 2018-Aug-18 08:58  m  05 21 00.965426 +22 13 08.58156
 2018-Aug-18 08:59  m  05 21 01.022819 +22 13 08.59516
 2018-Aug-18 09:00  m  05 21 01.080209 +22 13 08.60878
 2018-Aug-18 09:01  m  05 21 01.137596 +22 13 08.62242
 2018-Aug-18 09:02  m  05 21 01.194980 +22 13 08.63606
 2018-Aug-18 09:03  m  05 21 01.252362 +22 13 08.64971
